NORAD_CAT_ID,OBJECT_NAME,OBJECT_TYPE,EPOCH,MEAN_MOTION,ECCENTRICITY,INCLINATION,RA_OF_ASC_NODE,ARG_OF_PERICENTER,MEAN_ANOMALY,BSTAR,MEAN_MOTION_DOT,MEAN_MOTION_DDOT,TLE_LINE0,TLE_LINE1,TLE_LINE2,SEMIMAJOR_AXIS,PERIOD,APOGEE,PERIGEE,DECAYED
53143.0,STARLINK-4102,PAYLOAD,2023-01-26 13:42:03,15.08843727,0.0001196,53.2143,243.3377,83.9083,276.2045,0.00014288,1.987e-05,0.0,0 STARLINK-4102,1 53143U 22083M   23026.57087582  .00001987  00000-0  14288-3 0  9997,2 53143  53.2143 243.3377 0001196  83.9083 276.2045 15.08843727 29409,6917.869000000001,95.437,540.561,538.9069999999999,0.0
53143.0,STARLINK-4102,PAYLOAD,2023-01-26 20:03:36,15.08847665,0.0001203,53.2146,242.1483,82.8427,277.2702,0.00015991,2.259e-05,0.0,0 STARLINK-4102,1 53143U 22083M   23026.83583365  .00002259  00000-0  15991-3 0  9991,2 53143  53.2146 242.1483 0001203  82.8427 277.2702 15.08847665 30077,6917.857,95.437,540.554,538.89,0.0
53143.0,STARLINK-4102,PAYLOAD,2023-01-27 08:46:41,15.08838571,0.0001079,53.2151,239.7639,118.3425,241.7676,-1.8181e-06,-3.17e-06,0.0,0 STARLINK-4102,1 53143U 22083M   23027.36575339 -.00000317  00000-0 -18181-5 0  9993,2 53143  53.2151 239.7639 0001079 118.3425 241.7676 15.08838571 30153,6917.885,95.438,540.496,539.003,0.0
53143.0,STARLINK-4102,PAYLOAD,2023-01-27 21:29:46,15.08838937,0.0001187,53.2142,237.3897,87.7788,272.334,0.00010287,1.35e-05,0.0,0 STARLINK-4102,1 53143U 22083M   23027.89567978  .00001350  00000-0  10287-3 0  9994,2 53143  53.2142 237.3897 0001187  87.7788 272.3340 15.08838937 29606,6917.884,95.438,540.57,538.927,0.0
53143.0,STARLINK-4102,PAYLOAD,2023-01-28 11:48:15,15.08839185,0.0001319,53.2142,234.7146,71.8136,288.2999,2.0127e-05,3.2e-07,0.0,0 STARLINK-4102,1 53143U 22083M   23028.49184155  .00000032  00000-0  20127-4 0  9994,2 53143  53.2142 234.7146 0001319  71.8136 288.2999 15.08839185 30325,6917.883,95.438,540.66,538.835,0.0
53143.0,STARLINK-4102,PAYLOAD,2023-01-28 13:23:38,15.08840652,0.0001305,53.2142,234.4151,94.8924,265.2217,2.5585e-05,1.19e-06,0.0,0 STARLINK-4102,1 53143U 22083M   23028.55807959  .00000119  00000-0  25585-4 0  9994,2 53143  53.2142 234.4151 0001305  94.8924 265.2217 15.08840652 29702,6917.878,95.438,540.646,538.841,0.0
53143.0,STARLINK-4102,PAYLOAD,2023-01-28 19:45:10,15.08842713,0.0001269,53.2149,233.2273,74.9368,285.1765,4.5467e-05,4.36e-06,0.0,0 STARLINK-4102,1 53143U 22083M   23028.82304139  .00000436  00000-0  45467-4 0  9999,2 53143  53.2149 233.2273 0001269  74.9368 285.1765 15.08842713 29744,6917.872,95.437,540.615,538.859,0.0
53143.0,STARLINK-4102,PAYLOAD,2023-01-29 16:25:11,15.08840622,0.0001351,53.2148,229.3615,79.6838,280.4307,0.00014908,2.086e-05,0.0,0 STARLINK-4102,1 53143U 22083M   23029.68416075  .00002086  00000-0  14908-3 0  9995,2 53143  53.2148 229.3615 0001351  79.6838 280.4307 15.08840622 30508,6917.878,95.438,540.678,538.809,0.0
53143.0,STARLINK-4102,PAYLOAD,2023-01-29 19:35:57,15.0884209,0.0001334,53.2149,228.7667,80.7627,279.3516,0.00015727,2.216e-05,0.0,0 STARLINK-4102,1 53143U 22083M   23029.81663953  .00002216  00000-0  15727-3 0  9994,2 53143  53.2149 228.7667 0001334  80.7627 279.3516 15.08842090 29899,6917.874,95.437,540.662,538.816,0.0
53143.0,STARLINK-4102,PAYLOAD,2023-01-30 13:05:12,15.08840109,0.0001342,53.2148,225.4952,82.0116,278.1028,9.7519e-05,1.264e-05,0.0,0 STARLINK-4102,1 53143U 22083M   23030.54528193  .00001264  00000-0  97519-4 0  9994,2 53143  53.2148 225.4952 0001342  82.0116 278.1028 15.08840109 30005,6917.88,95.438,540.673,538.817,0.0
53143.0,STARLINK-4102,PAYLOAD,2023-01-30 19:26:44,15.08842448,0.0001336,53.2148,224.3053,84.6836,275.4308,0.00010667,1.41e-05,0.0,0 STARLINK-4102,1 53143U 22083M   23030.81023976  .00001410  00000-0  10667-3 0  9994,2 53143  53.2148 224.3053 0001336  84.6836 275.4308 15.08842448 30677,6917.873,95.437,540.662,538.814,0.0
53143.0,STARLINK-4102,PAYLOAD,2023-01-31 12:55:59,15.08840339,0.0001336,53.2147,221.0341,85.7296,274.3849,5.0922e-05,5.23e-06,0.0,0 STARLINK-4102,1 53143U 22083M   23031.53888174  .00000523  00000-0  50922-4 0  9996,2 53143  53.2147 221.0341 0001336  85.7296 274.3849 15.08840339 30150,6917.879,95.438,540.669,538.82,0.0
53143.0,STARLINK-4102,PAYLOAD,2023-01-31 19:17:31,15.08840775,0.0001323,53.2147,219.8443,86.1595,273.9548,4.3978e-05,4.12e-06,0.0,0 STARLINK-4102,1 53143U 22083M   23031.80384095  .00000412  00000-0  43978-4 0  9999,2 53143  53.2147 219.8443 0001323  86.1595 273.9548 15.08840775 30190,6917.878,95.438,540.658,538.828,0.0
53143.0,STARLINK-4102,PAYLOAD,2023-02-01 04:49:50,15.08839365,0.0001274,53.2149,218.0598,84.1762,275.9375,5.0858e-05,5.22e-06,0.0,0 STARLINK-4102,1 53143U 22083M   23032.20128153  .00000522  00000-0  50858-4 0  9992,2 53143  53.2149 218.0598 0001274  84.1762 275.9375 15.08839365 30253,6917.882,95.438,540.629,538.866,0.0
53143.0,STARLINK-4102,PAYLOAD,2023-02-01 22:19:05,15.08841126,0.0001268,53.2148,214.789,84.7561,275.3576,6.1191e-05,6.86e-06,0.0,0 STARLINK-4102,1 53143U 22083M   23032.92992007  .00000686  00000-0  61191-4 0  9991,2 53143  53.2148 214.7890 0001268  84.7561 275.3576 15.08841126 30992,6917.877,95.437,540.619,538.865,0.0
53143.0,STARLINK-4102,PAYLOAD,2023-02-02 11:02:10,15.08832997,0.0001226,53.2149,212.4098,83.8357,276.2774,1.8365e-05,4e-08,0.0,0 STARLINK-4102,1 53143U 22083M   23033.45984741  .00000004  00000-0  18365-4 0  9995,2 53143  53.2149 212.4098 0001226  83.8357 276.2774 15.08832997 30441,6917.902,95.438,540.615,538.919,0.0
53143.0,STARLINK-4102,PAYLOAD,2023-02-03 12:28:21,15.08834486,0.0001164,53.2154,207.6519,92.9881,267.1245,3.1845e-05,2.19e-06,0.0,0 STARLINK-4102,1 53143U 22083M   23034.51968870  .00000219  00000-0  31845-4 0  9994,2 53143  53.2154 207.6519 0001164  92.9881 267.1245 15.08834486 30600,6917.897,95.438,540.567,538.957,0.0
53143.0,STARLINK-4102,PAYLOAD,2023-02-04 10:43:44,15.08839812,0.0001122,53.216,203.4885,92.3907,267.7213,0.00010525,1.388e-05,0.0,0 STARLINK-4102,1 53143U 22083M   23035.44704593  .00001388  00000-0  10525-3 0  9996,2 53143  53.2160 203.4885 0001122  92.3907 267.7213 15.08839812 30748,6917.881,95.438,540.522,538.97,0.0
53143.0,STARLINK-4102,PAYLOAD,2023-02-04 18:40:39,15.08848453,0.0001105,53.2159,202.0021,90.4393,269.6726,0.00015565,2.191e-05,0.0,0 STARLINK-4102,1 53143U 22083M   23035.77823947  .00002191  00000-0  15565-3 0  9999,2 53143  53.2159 202.0021 0001105  90.4393 269.6726 15.08848453 31429,6917.855,95.437,540.484,538.955,0.0
53143.0,STARLINK-4102,PAYLOAD,2023-02-04 20:16:02,15.08850024,0.0001112,53.2158,201.7046,90.5719,269.5401,0.000171,2.435e-05,0.0,0 STARLINK-4102,1 53143U 22083M   23035.84447791  .00002435  00000-0  17100-3 0  9994,2 53143  53.2158 201.7046 0001112  90.5719 269.5401 15.08850024 30809,6917.85,95.437,540.484,538.945,0.0
53143.0,STARLINK-4102,PAYLOAD,2023-02-05 10:34:32,15.08837281,0.0001334,53.2167,199.0294,86.7907,273.3238,0.00010112,1.322e-05,0.0,0 STARLINK-4102,1 53143U 22083M   23036.44065064  .00001322  00000-0  10112-3 0  9990,2 53143  53.2167 199.0294 0001334  86.7907 273.3238 15.08837281 31526,6917.889,95.438,540.677,538.831,0.0
53143.0,STARLINK-4102,PAYLOAD,2023-02-05 20:06:50,15.08839968,0.0001188,53.2157,197.2442,91.9493,268.1635,0.00012848,1.757e-05,0.0,0 STARLINK-4102,1 53143U 22083M   23036.83808883  .00001757  00000-0  12848-3 0  9997,2 53143  53.2157 197.2442 0001188  91.9493 268.1635 15.08839968 30958,6917.88,95.438,540.567,538.924,0.0
53143.0,STARLINK-4102,PAYLOAD,2023-02-06 13:36:05,15.08846067,0.0001371,53.2149,193.9738,85.7887,274.3262,0.00010824,1.435e-05,0.0,0 STARLINK-4102,1 53143U 22083M   23037.56672621  .00001435  00000-0  10824-3 0  9992,2 53143  53.2149 193.9738 0001371  85.7887 274.3262 15.08846067 31068,6917.862,95.437,540.675,538.778,0.0
53143.0,STARLINK-4102,PAYLOAD,2023-02-06 16:46:51,15.088502,0.0001432,53.2148,193.3788,84.3612,275.7544,0.00015095,2.116e-05,0.0,0 STARLINK-4102,1 53143U 22083M   23037.69920414  .00002116  00000-0  15095-3 0  9994,2 53143  53.2148 193.3788 0001432  84.3612 275.7544 15.08850200 31719,6917.849,95.437,540.705,538.724,0.0
53143.0,STARLINK-4102,PAYLOAD,2023-02-06 19:57:37,15.08846519,0.0001287,53.2152,192.7856,67.7047,292.4082,0.00012694,1.733e-05,0.0,0 STARLINK-4102,1 53143U 22083M   23037.83168648  .00001733  00000-0  12694-3 0  9999,2 53143  53.2152 192.7856 0001287  67.7047 292.4082 15.08846519 31102,6917.86,95.437,540.616,538.835,0.0
53143.0,STARLINK-4102,PAYLOAD,2023-02-07 13:26:54,15.08815913,0.0001386,53.2144,189.508,113.9477,246.166,-4.0314e-05,-9.29e-06,0.0,0 STARLINK-4102,1 53143U 22083M   23038.56034902 -.00000929  00000-0 -40314-4 0  9994,2 53143  53.2144 189.5080 0001386 113.9477 246.1660 15.08815913 31211,6917.954,95.439,540.778,538.86,0.0
53143.0,STARLINK-4102,PAYLOAD,2023-02-07 18:13:03,15.08822096,0.0001236,53.2152,188.6216,82.1244,277.9889,-6.8489e-06,-3.97e-06,0.0,0 STARLINK-4102,1 53143U 22083M   23038.75906914 -.00000397  00000-0 -68489-5 0  9999,2 53143  53.2152 188.6216 0001236  82.1244 277.9889 15.08822096 31871,6917.935,95.439,540.655,538.945,0.0
53143.0,STARLINK-4102,PAYLOAD,2023-02-07 19:48:26,15.08825617,0.0001221,53.2153,188.3243,81.6139,278.4991,8.697e-05,1.096e-05,0.0,0 STARLINK-4102,1 53143U 22083M   23038.82530922  .00001096  00000-0  86970-4 0  9998,2 53143  53.2153 188.3243 0001221  81.6139 278.4991 15.08825617 31254,6917.924,95.438,540.634,538.945,0.0
53143.0,STARLINK-4102,PAYLOAD,2023-02-08 10:06:54,15.08857651,0.0001039,53.2153,185.6478,70.4679,289.6425,0.0013138,0.00020693,0.0,0 STARLINK-4102,1 53143U 22083M   23039.42146724  .00020693  00000-0  13138-2 0  9996,2 53143  53.2153 185.6478 0001039  70.4679 289.6425 15.08857651 31974,6917.826,95.436,540.41,538.973,0.0
53143.0,STARLINK-4102,PAYLOAD,2023-02-08 14:53:03,15.08883958,0.0001082,53.2156,184.7562,65.6837,294.4268,0.0021315,0.00033839,0.0,0 STARLINK-4102,1 53143U 22083M   23039.62018286  .00033839  00000-0  21315-2 0  9991,2 53143  53.2156 184.7562 0001082  65.6837 294.4268 15.08883958 31373,6917.746,95.435,540.36,538.863,0.0
